PROBA-1                 
1 26958U 01049B   26165.61434318  .00001939  00000+0  12789-3 0  9995
2 26958  97.9598 174.0567 0056228 130.3752 230.2403 15.07487324343233
CUTE-1 (CO-55)          
1 27844U 03031E   26165.50824594  .00000252  00000+0  12810-3 0  9992
2 27844  98.6736 174.1008 0009350 185.7557 174.3516 14.24334231191298
CUBESAT XI-IV (CO-57)   
1 27848U 03031J   26165.28450992  .00000215  00000+0  11362-3 0  9998
2 27848  98.6766 173.5948 0008829 205.9293 154.1445 14.23619426190964
APRIZESAT 4             
1 35684U 09041D   26165.49234728  .00000561  00000+0  73582-4 0  9999
2 35684  98.1413 240.7591 0042570 331.9738  27.9183 14.83876102910969
APRIZESAT 3             
1 35686U 09041F   26165.42396590  .00001464  00000+0  13053-3 0  9999
2 35686  98.2055 318.5155 0062749  76.6419 284.1786 14.96233173915963
PROBA-2                 
1 36037U 09059B   26165.48945038  .00000168  00000+0  49575-4 0  9991
2 36037  98.2449 348.8796 0012022 291.3021  68.6892 14.54861414881135
APRIZESAT 5             
1 37792U 11044E   26165.64267651  .00001006  00000+0  13418-3 0  9991
2 37792  98.2454  98.6109 0052549  12.4847 347.7653 14.81071041798417
APRIZESAT 6             
1 37793U 11044F   26165.58343833  .00000674  00000+0  10220-3 0  9990
2 37793  98.2367  76.0299 0044486  94.1121  26.1938 14.76912301796761
PROBA-V                 
1 39159U 13021A   26165.51861898  .00000056  00000+0  42453-4 0  9992
2 39159  98.3582 144.2569 0005035 129.6694 230.4931 14.23596478680730
APRIZESAT 7             
1 39416U 13066A   26165.60470993  .00001010  00000+0  10538-3 0  9998
2 39416  97.7709 118.8617 0034799 217.9769 141.8995 14.91558884680845
APRIZESAT 8             
1 39425U 13066K   26165.58552050  .00000863  00000+0  99411-4 0  9993
2 39425  97.8221 113.0897 0044500 295.4143  64.2471 14.87648345679280
BUGSAT-1 (TITA)         
1 40014U 14033E   26165.59337236  .00006686  00000+0  35299-3 0  9994
2 40014  98.0435 257.9898 0027774 187.3961 172.6864 15.15564311655440
SAUDISAT 4              
1 40016U 14033G   26165.41367102  .00000620  00000+0  88182-4 0  9994
2 40016  97.7579 311.6443 0046219  82.7448 277.9015 14.79541441645662
APRIZESAT 9             
1 40018U 14033J   26165.35687851  .00000603  00000+0  96002-4 0  9996
2 40018  97.9057 298.6247 0065479 208.3420 151.4221 14.74211011643146
APRIZESAT 10            
1 40019U 14033K   26165.60963789  .00000359  00000+0  64523-4 0  9993
2 40019  97.9646 292.6266 0077420 282.2285  77.0259 14.70880364641876
TECHDEMOSAT-1 (TDS-1)   
1 40076U 14037H   26165.57972752  .00007432  00000+0  42210-3 0  9993
2 40076  98.3808 157.5343 0004506 277.9590  82.1127 15.13259732647834
TECHNOSAT               
1 42829U 17042E   26165.39023323  .00003894  00000+0  27794-3 0  9999
2 42829  97.4271 323.1544 0018806 102.9846 257.3482 15.04942761486280
FLYING LAPTOP           
1 42831U 17042G   26165.58586149  .00003726  00000+0  29426-3 0  9991
2 42831  97.4669 321.2187 0019526 130.2806 230.0129 15.01131863486068
HAWK-A                  
1 43765U 18099H   26165.39468374  .00006036  00000+0  24390-3 0  9991
2 43765  97.3917 217.6667 0033189 296.2657  63.5171 15.24614455412679
HAWK-B                  
1 43794U 18099AN  26165.41289830  .00005912  00000+0  25275-3 0  9999
2 43794  97.3966 217.1057 0030646 315.1493  44.7267 15.22799316412616
HAWK-C                  
1 43799U 18099AT  26165.11560373  .00007746  00000+0  27953-3 0  9997
2 43799  97.3896 218.2883 0038857 297.1702  62.5578 15.28065252413442
SALSAT                  
1 46495U 20068K   26165.52910376  .00006973  00000+0  24454-3 0  9993
2 46495  97.8843 168.4319 0008235 319.4661  40.5964 15.29765944314951
HAWK-2C                 
1 47502U 21006CT  26165.08768379  .00006826  00000+0  20564-3 0  9996
2 47502  97.2280 209.4591 0006338 196.7406 163.3629 15.34630308299026
HAWK-2A                 
1 47505U 21006CW  26165.09020655  .00006772  00000+0  20395-3 0  9990
2 47505  97.2324 210.1377 0005748 200.0133 160.0886 15.34645114299029
HAWK-2B                 
1 47508U 21006CZ  26165.08591556  .00007637  00000+0  22904-3 0  9994
2 47508  97.2193 208.4700 0006336 198.1903 161.9115 15.34728701299021
HAWK-3B                 
1 48931U 21059BE  26165.51889976  .00042363  00000+0  36228-3 0  9996
2 48931  97.6651   1.9752 0003409 345.6510  14.4653 15.69359053277437
HAWK-3C                 
1 48948U 21059BX  26165.51857842  .00040339  00000+0  34506-3 0  9999
2 48948  97.6777   7.6565 0003711 345.9096  14.2061 15.69360644277436
HAWK-3A                 
1 48957U 21059CG  26165.51846593  .00041166  00000+0  35200-3 0  9991
2 48957  97.6716   4.8635 0003824 348.3770  11.7402 15.69365612277438
HAWK-5C                 
1 52754U 22057Y   26165.39952711  .00018185  00000+0  31116-3 0  9993
2 52754  97.6588 324.8867 0005192  91.4215 268.7631 15.51305876225918
HAWK-5B                 
1 52756U 22057AA  26165.39937783  .00018441  00000+0  31546-3 0  9999
2 52756  97.6596 323.2356 0005844  84.3192 275.8726 15.51306746225915
